[{"OBJECT_NAME":"OBJECT E","OBJECT_ID":"2025-108E","EPOCH":"2026-03-09T22:47:33.087264","MEAN_MOTION":15.21687985,"ECCENTRICITY":0.00120507,"INCLINATION":97.4733,"RA_OF_ASC_NODE":146.3251,"ARG_OF_PERICENTER":355.0627,"MEAN_ANOMALY":5.0488,"EPHEMERIS_TYPE":0,"CLASSIFICATION_TYPE":"U","NORAD_CAT_ID":64091,"ELEMENT_SET_NO":999,"REV_AT_EPOCH":4434,"BSTAR":0.00076441924,"MEAN_MOTION_DOT":0.00017283,"MEAN_MOTION_DDOT":0},{"OBJECT_NAME":"STARCLOUD-1","OBJECT_ID":"2025-248L","EPOCH":"2026-03-08T23:33:20.923488","MEAN_MOTION":15.20134222,"ECCENTRICITY":0.00060214,"INCLINATION":45.402,"RA_OF_ASC_NODE":297.8511,"ARG_OF_PERICENTER":202.4241,"MEAN_ANOMALY":157.6383,"EPHEMERIS_TYPE":0,"CLASSIFICATION_TYPE":"U","NORAD_CAT_ID":66303,"ELEMENT_SET_NO":999,"REV_AT_EPOCH":1928,"BSTAR":0.00040463937,"MEAN_MOTION_DOT":8.636e-5,"MEAN_MOTION_DDOT":0}]
